{
  "norad_id": 67170,
  "name": "STARLINK-35863",
  "history": [
    {
      "epoch": "2026-03-28T14:19:46.982784",
      "apogee_km": 483.3302906154331,
      "perigee_km": 482.5975250384772,
      "latitude_deg": -41.554189472639486,
      "longitude_deg": -125.68113023997284,
      "semi_major_axis_km": 6861.100907826954,
      "eccentricity": 5.34e-05,
      "inclination_deg": 43.0003,
      "raan_deg": 204.2048,
      "arg_perigee_deg": 245.3336,
      "mean_anomaly_deg": 114.746,
      "mean_motion_rev_day": 15.2760845
    }
  ]
}