{"fetched_at":"2026-03-29T16:36:15Z","count":15609,"tles":[{"name":"STARLINK-35863","line1":"1 67170U 25303H   26087.59707156  .00027178  00000+0  99267-3 0  9997","line2":"2 67170  43.0003 204.2048 0000534 245.3336 114.7460 15.27608450 15626","category":"Starlink"}]}